{"type": "FeatureCollection", "features": [ {"type": "Feature", "properties": {"norad_id": 34400, "name": "COSMOS 2251 DEB", "group": "cosmos-2251-debris", "lat": -28.29205874348437, "lon": -148.65128592147695, "alt_km": 409.7296457550274, "timestamp": "2025-12-13T03:42:11.666267+00:00", "meta": {"OBJECT_NAME": "COSMOS 2251 DEB", "OBJECT_ID": "1993-036QR", "EPOCH": "2025-12-12T02:04:19.041600", "MEAN_MOTION": 15.53062359, "ECCENTRICITY": 0.00052902, "INCLINATION": 73.9661, "RA_OF_ASC_NODE": 24.8071, "ARG_OF_PERICENTER": 267.662, "MEAN_ANOMALY": 92.3989, "EPHEMERIS_TYPE": 0, "CLASSIFICATION_TYPE": "U", "NORAD_CAT_ID": 34400, "ELEMENT_SET_NO": 999, "REV_AT_EPOCH": 89964, "BSTAR": 0.0039903096, "MEAN_MOTION_DOT": 0.00257951, "MEAN_MOTION_DDOT": 0}, "tle": {"line1": "1 34400U 93036QR  25346.08633150  .00257951  00000+0  39903-2 0  9992", "line2": "2 34400  73.9661  24.8071 0005290 267.6620  92.3989 15.53062359899647"}}, "geometry": {"type": "Point", "coordinates": [-148.65128592147695, -28.29205874348437]}}, {"type": "Feature", "properties": {"norad_id": 34409, "name": "COSMOS 2251 DEB", "group": "cosmos-2251-debris", "lat": -25.356475818660996, "lon": -61.73081521061749, "alt_km": 665.7725888082314, "timestamp": "2025-12-13T03:42:11.666288+00:00", "meta": {"OBJECT_NAME": "COSMOS 2251 DEB", "OBJECT_ID": "1993-036RA", "EPOCH": "2025-12-11T22:27:13.227264", "MEAN_MOTION": 14.58024093, "ECCENTRICITY": 0.0079805, "INCLINATION": 74.0641, "RA_OF_ASC_NODE": 308.3648, "ARG_OF_PERICENTER": 22.8974, "MEAN_ANOMALY": 37.0595, "EPHEMERIS_TYPE": 0, "CLASSIFICATION_TYPE": "U", "NORAD_CAT_ID": 34409, "ELEMENT_SET_NO": 999, "REV_AT_EPOCH": 89181, "BSTAR": 0.00043693, "MEAN_MOTION_DOT": 2.068e-05, "MEAN_MOTION_DDOT": 0}, "tle": {"line1": "1 34409U 93036RA  25345.93556976  .00002068  00000+0  43693-3 0  9993", "line2": "2 34409  74.0641 308.3648 0079805  22.8974  37.0595 14.58024093891819"}}, "geometry": {"type": "Point", "coordinates": [-61.73081521061749, -25.356475818660996]}}, {"type": "Feature", "properties": {"norad_id": 34410, "name": "COSMOS 2251 DEB", "group": "cosmos-2251-debris", "lat": 68.89985522644486, "lon": 31.6957533441542, "alt_km": 487.057540346379, "timestamp": "2025-12-13T03:42:11.666300+00:00", "meta": {"OBJECT_NAME": "COSMOS 2251 DEB", "OBJECT_ID": "1993-036RB", "EPOCH": "2025-12-12T05:47:38.706144", "MEAN_MOTION": 15.18859783, "ECCENTRICITY": 0.00214784, "INCLINATION": 73.7363, "RA_OF_ASC_NODE": 262.8024, "ARG_OF_PERICENTER": 104.6964, "MEAN_ANOMALY": 49.2576, "EPHEMERIS_TYPE": 0, "CLASSIFICATION_TYPE": "U", "NORAD_CAT_ID": 34410, "ELEMENT_SET_NO": 999, "REV_AT_EPOCH": 89766, "BSTAR": 0.0032816974, "MEAN_MOTION_DOT": 0.00069449, "MEAN_MOTION_DDOT": 0}, "tle": {"line1": "1 34410U 93036RB  25346.24142021  .00069449  00000+0  32817-2 0  9993", "line2": "2 34410  73.7363 262.8024 0021478 104.6964  49.2576 15.18859783897663"}}, "geometry": {"type": "Point", "coordinates": [31.6957533441542, 68.89985522644486]}}, {"type": "Feature", "properties": {"norad_id": 34412, "name": "COSMOS 2251 DEB", "group": "cosmos-2251-debris", "lat": 9.662741480360246, "lon": 141.02096151286008, "alt_km": 781.8299987585624, "timestamp": "2025-12-13T03:42:11.666311+00:00", "meta": {"OBJECT_NAME": "COSMOS 2251 DEB", "OBJECT_ID": "1993-036RD", "EPOCH": "2025-12-12T07:01:45.991488", "MEAN_MOTION": 14.47125156, "ECCENTRICITY": 0.01871512, "INCLINATION": 73.9485, "RA_OF_ASC_NODE": 325.4499, "ARG_OF_PERICENTER": 60.6296, "MEAN_ANOMALY": 301.3406, "EPHEMERIS_TYPE": 0, "CLASSIFICATION_TYPE": "U", "NORAD_CAT_ID": 34412, "ELEMENT_SET_NO": 999, "REV_AT_EPOCH": 87644, "BSTAR": 0.001954242, "MEAN_MOTION_DOT": 8.859e-05, "MEAN_MOTION_DDOT": 0}, "tle": {"line1": "1 34412U 93036RD  25346.29289342  .00008859  00000+0  19542-2 0  9996", "line2": "2 34412  73.9485 325.4499 0187151  60.6296 301.3406 14.47125156876442"}}, "geometry": {"type": "Point", "coordinates": [141.02096151286008, 9.662741480360246]}}, {"type": "Feature", "properties": {"norad_id": 34413, "name": "COSMOS 2251 DEB", "group": "cosmos-2251-debris", "lat": -73.92664398282687, "lon": -179.48855882970219, "alt_km": 777.4934716767357, "timestamp": "2025-12-13T03:42:11.666321+00:00", "meta": {"OBJECT_NAME": "COSMOS 2251 DEB", "OBJECT_ID": "1993-036RE", "EPOCH": "2025-12-12T05:17:33.755712", "MEAN_MOTION": 14.29093408, "ECCENTRICITY": 0.00908685, "INCLINATION": 74.031, "RA_OF_ASC_NODE": 265.8209, "ARG_OF_PERICENTER": 342.3849, "MEAN_ANOMALY": 168.2383, "EPHEMERIS_TYPE": 0, "CLASSIFICATION_TYPE": "U", "NORAD_CAT_ID": 34413, "ELEMENT_SET_NO": 999, "REV_AT_EPOCH": 87123, "BSTAR": 0.0024919094, "MEAN_MOTION_DOT": 6.583e-05, "MEAN_MOTION_DDOT": 0}, "tle": {"line1": "1 34413U 93036RE  25346.22052958  .00006583  00000+0  24919-2 0  9997", "line2": "2 34413  74.0310 265.8209 0090868 342.3849 168.2383 14.29093408871230"}}, "geometry": {"type": "Point", "coordinates": [-179.48855882970219, -73.92664398282687]}}, {"type": "Feature", "properties": {"norad_id": 34420, "name": "COSMOS 2251 DEB", "group": "cosmos-2251-debris", "lat": 59.4724493188455, "lon": 132.2040907953541, "alt_km": 731.1409839270964, "timestamp": "2025-12-13T03:42:11.666331+00:00", "meta": {"OBJECT_NAME": "COSMOS 2251 DEB", "OBJECT_ID": "1993-036RM", "EPOCH": "2025-12-12T03:07:50.776320", "MEAN_MOTION": 14.68295104, "ECCENTRICITY": 0.01066678, "INCLINATION": 74.0334, "RA_OF_ASC_NODE": 105.1374, "ARG_OF_PERICENTER": 226.4253, "MEAN_ANOMALY": 187.9562, "EPHEMERIS_TYPE": 0, "CLASSIFICATION_TYPE": "U", "NORAD_CAT_ID": 34420, "ELEMENT_SET_NO": 999, "REV_AT_EPOCH": 89761, "BSTAR": 0.00040513405, "MEAN_MOTION_DOT": 2.513e-05, "MEAN_MOTION_DDOT": 0}, "tle": {"line1": "1 34420U 93036RM  25346.13044880  .00002513  00000+0  40513-3 0  9998", "line2": "2 34420  74.0334 105.1374 0106667 226.4253 187.9562 14.68295104897616"}}, "geometry": {"type": "Point", "coordinates": [132.2040907953541, 59.4724493188455]}}, {"type": "Feature", "properties": {"norad_id": 34425, "name": "COSMOS 2251 DEB", "group": "cosmos-2251-debris", "lat": 36.094655118280784, "lon": -138.33649203991052, "alt_km": 669.5857327454469, "timestamp": "2025-12-13T03:42:11.666342+00:00", "meta": {"OBJECT_NAME": "COSMOS 2251 DEB", "OBJECT_ID": "1993-036RS", "EPOCH": "2025-12-12T07:20:57.375168", "MEAN_MOTION": 14.62126371, "ECCENTRICITY": 0.00248677, "INCLINATION": 74.0201, "RA_OF_ASC_NODE": 55.3472, "ARG_OF_PERICENTER": 181.9603, "MEAN_ANOMALY": 178.147, "EPHEMERIS_TYPE": 0, "CLASSIFICATION_TYPE": "U", "NORAD_CAT_ID": 34425, "ELEMENT_SET_NO": 999, "REV_AT_EPOCH": 88734, "BSTAR": 0.00093625084, "MEAN_MOTION_DOT": 4.701e-05, "MEAN_MOTION_DDOT": 0}, "tle": {"line1": "1 34425U 93036RS  25346.30621962  .00004701  00000+0  93625-3 0  9997", "line2": "2 34425  74.0201  55.3472 0024867 181.9603 178.1470 14.62126371887346"}}, "geometry": {"type": "Point", "coordinates": [-138.33649203991052, 36.094655118280784]}}, {"type": "Feature", "properties": {"norad_id": 34429, "name": "COSMOS 2251 DEB", "group": "cosmos-2251-debris", "lat": -41.267141239549495, "lon": 152.49912293134653, "alt_km": 444.16707136924015, "timestamp": "2025-12-13T03:42:11.666352+00:00", "meta": {"OBJECT_NAME": "COSMOS 2251 DEB", "OBJECT_ID": "1993-036RW", "EPOCH": "2025-12-11T22:49:36.139872", "MEAN_MOTION": 15.41156412, "ECCENTRICITY": 0.0007285, "INCLINATION": 73.9701, "RA_OF_ASC_NODE": 169.7275, "ARG_OF_PERICENTER": 11.6809, "MEAN_ANOMALY": 111.3693, "EPHEMERIS_TYPE": 0, "CLASSIFICATION_TYPE": "U", "NORAD_CAT_ID": 34429, "ELEMENT_SET_NO": 999, "REV_AT_EPOCH": 89436, "BSTAR": 0.0055962, "MEAN_MOTION_DOT": 0.00239612, "MEAN_MOTION_DDOT": 0}, "tle": {"line1": "1 34429U 93036RW  25345.95111273  .00239612  00000+0  55962-2 0  9992", "line2": "2 34429  73.9701 169.7275 0007285  11.6809 111.3693 15.41156412894369"}}, "geometry": {"type": "Point", "coordinates": [152.49912293134653, -41.267141239549495]}}, {"type": "Feature", "properties": {"norad_id": 34430, "name": "COSMOS 2251 DEB", "group": "cosmos-2251-debris", "lat": -64.38484037740801, "lon": 159.21095775239635, "alt_km": 789.4952124529009, "timestamp": "2025-12-13T03:42:11.666362+00:00", "meta": {"OBJECT_NAME": "COSMOS 2251 DEB", "OBJECT_ID": "1993-036RX", "EPOCH": "2025-12-12T04:51:51.591744", "MEAN_MOTION": 14.39630116, "ECCENTRICITY": 0.00603161, "INCLINATION": 74.0523, "RA_OF_ASC_NODE": 304.3531, "ARG_OF_PERICENTER": 14.1131, "MEAN_ANOMALY": 346.1691, "EPHEMERIS_TYPE": 0, "CLASSIFICATION_TYPE": "U", "NORAD_CAT_ID": 34430, "ELEMENT_SET_NO": 999, "REV_AT_EPOCH": 87947, "BSTAR": 0.0008295348, "MEAN_MOTION_DOT": 2.624e-05, "MEAN_MOTION_DDOT": 0}, "tle": {"line1": "1 34430U 93036RX  25346.20268046  .00002624  00000+0  82953-3 0  9996", "line2": "2 34430  74.0523 304.3531 0060316  14.1131 346.1691 14.39630116879472"}}, "geometry": {"type": "Point", "coordinates": [159.21095775239635, -64.38484037740801]}}, {"type": "Feature", "properties": {"norad_id": 34431, "name": "COSMOS 2251 DEB", "group": "cosmos-2251-debris", "lat": 42.29417605879741, "lon": -20.605038777967536, "alt_km": 747.3836922065584, "timestamp": "2025-12-13T03:42:11.666372+00:00", "meta": {"OBJECT_NAME": "COSMOS 2251 DEB", "OBJECT_ID": "1993-036RY", "EPOCH": "2025-12-11T22:30:12.235968", "MEAN_MOTION": 14.28769375, "ECCENTRICITY": 0.0068295, "INCLINATION": 74.0747, "RA_OF_ASC_NODE": 176.6516, "ARG_OF_PERICENTER": 162.5707, "MEAN_ANOMALY": 197.781, "EPHEMERIS_TYPE": 0, "CLASSIFICATION_TYPE": "U", "NORAD_CAT_ID": 34431, "ELEMENT_SET_NO": 999, "REV_AT_EPOCH": 87131, "BSTAR": 0.00096958, "MEAN_MOTION_DOT": 2.479e-05, "MEAN_MOTION_DDOT": 0}, "tle": {"line1": "1 34431U 93036RY  25345.93764162  .00002479  00000+0  96958-3 0  9994", "line2": "2 34431  74.0747 176.6516 0068295 162.5707 197.7810 14.28769375871311"}}, "geometry": {"type": "Point", "coordinates": [-20.605038777967536, 42.29417605879741]}}]}